[{"OBJECT_NAME":"STARLINK-30398","OBJECT_ID":"2023-138H","EPOCH":"2026-02-28T06:00:02.000160","MEAN_MOTION":15.13765672,"ECCENTRICITY":0.00010637,"INCLINATION":42.9999,"RA_OF_ASC_NODE":287.2314,"ARG_OF_PERICENTER":316.4412,"MEAN_ANOMALY":188.2353,"EPHEMERIS_TYPE":0,"CLASSIFICATION_TYPE":"U","NORAD_CAT_ID":57815,"ELEMENT_SET_NO":999,"REV_AT_EPOCH":583,"BSTAR":0.083070307,"MEAN_MOTION_DOT":0.01665887,"MEAN_MOTION_DDOT":0},{"OBJECT_NAME":"STARLINK-30386","OBJECT_ID":"2023-138J","EPOCH":"2026-02-28T06:00:02.000160","MEAN_MOTION":15.14050159,"ECCENTRICITY":0.00011362,"INCLINATION":42.9994,"RA_OF_ASC_NODE":287.0443,"ARG_OF_PERICENTER":288.0346,"MEAN_ANOMALY":291.6957,"EPHEMERIS_TYPE":0,"CLASSIFICATION_TYPE":"U","NORAD_CAT_ID":57816,"ELEMENT_SET_NO":999,"REV_AT_EPOCH":583,"BSTAR":0.00069267636,"MEAN_MOTION_DOT":0.00012614,"MEAN_MOTION_DDOT":0},{"OBJECT_NAME":"STARLINK-30391","OBJECT_ID":"2023-138K","EPOCH":"2026-02-28T06:00:02.000160","MEAN_MOTION":15.13447173,"ECCENTRICITY":6.99e-5,"INCLINATION":42.9998,"RA_OF_ASC_NODE":287.1087,"ARG_OF_PERICENTER":296.7375,"MEAN_ANOMALY":257.819,"EPHEMERIS_TYPE":0,"CLASSIFICATION_TYPE":"U","NORAD_CAT_ID":57817,"ELEMENT_SET_NO":999,"REV_AT_EPOCH":583,"BSTAR":0.0029975569,"MEAN_MOTION_DOT":0.00054734,"MEAN_MOTION_DDOT":0},{"OBJECT_NAME":"STARLINK-30401","OBJECT_ID":"2023-138L","EPOCH":"2026-02-28T06:00:02.000160","MEAN_MOTION":15.13317657,"ECCENTRICITY":7.837e-5,"INCLINATION":42.9995,"RA_OF_ASC_NODE":287.0544,"ARG_OF_PERICENTER":276.7409,"MEAN_ANOMALY":297.7672,"EPHEMERIS_TYPE":0,"CLASSIFICATION_TYPE":"U","NORAD_CAT_ID":57818,"ELEMENT_SET_NO":999,"REV_AT_EPOCH":583,"BSTAR":0.0028786878,"MEAN_MOTION_DOT":0.00052345,"MEAN_MOTION_DDOT":0},{"OBJECT_NAME":"STARLINK-30390","OBJECT_ID":"2023-138M","EPOCH":"2026-02-28T06:00:02.000160","MEAN_MOTION":15.13698923,"ECCENTRICITY":8.436e-5,"INCLINATION":42.9987,"RA_OF_ASC_NODE":287.0359,"ARG_OF_PERICENTER":274.9708,"MEAN_ANOMALY":310.6004,"EPHEMERIS_TYPE":0,"CLASSIFICATION_TYPE":"U","NORAD_CAT_ID":57819,"ELEMENT_SET_NO":999,"REV_AT_EPOCH":583,"BSTAR":0.0030389768,"MEAN_MOTION_DOT":0.00055897,"MEAN_MOTION_DDOT":0},{"OBJECT_NAME":"STARLINK-30409","OBJECT_ID":"2023-138N","EPOCH":"2026-02-28T06:00:02.000160","MEAN_MOTION":15.15915493,"ECCENTRICITY":0.00022753,"INCLINATION":43.0006,"RA_OF_ASC_NODE":286.7283,"ARG_OF_PERICENTER":281.8442,"MEAN_ANOMALY":63.8863,"EPHEMERIS_TYPE":0,"CLASSIFICATION_TYPE":"U","NORAD_CAT_ID":57820,"ELEMENT_SET_NO":999,"REV_AT_EPOCH":578,"BSTAR":0.069924509,"MEAN_MOTION_DOT":0.01497125,"MEAN_MOTION_DDOT":0},{"OBJECT_NAME":"STARLINK-30415","OBJECT_ID":"2023-138P","EPOCH":"2026-02-28T06:00:02.000160","MEAN_MOTION":15.10809928,"ECCENTRICITY":8.046e-5,"INCLINATION":42.9994,"RA_OF_ASC_NODE":287.0805,"ARG_OF_PERICENTER":292.9448,"MEAN_ANOMALY":270.6252,"EPHEMERIS_TYPE":0,"CLASSIFICATION_TYPE":"U","NORAD_CAT_ID":57821,"ELEMENT_SET_NO":999,"REV_AT_EPOCH":573,"BSTAR":0.0030889843,"MEAN_MOTION_DOT":0.00052382,"MEAN_MOTION_DDOT":0},{"OBJECT_NAME":"STARLINK-30407","OBJECT_ID":"2023-138R","EPOCH":"2026-02-28T01:24:24.624576","MEAN_MOTION":15.27577811,"ECCENTRICITY":0.00013844,"INCLINATION":43.0029,"RA_OF_ASC_NODE":183.1781,"ARG_OF_PERICENTER":288.1702,"MEAN_ANOMALY":71.8998,"EPHEMERIS_TYPE":0,"CLASSIFICATION_TYPE":"U","NORAD_CAT_ID":57823,"ELEMENT_SET_NO":999,"REV_AT_EPOCH":13849,"BSTAR":5.4715788e-5,"MEAN_MOTION_DOT":1.244e-5,"MEAN_MOTION_DDOT":0},{"OBJECT_NAME":"STARLINK-30408","OBJECT_ID":"2023-138S","EPOCH":"2026-02-28T06:00:02.000160","MEAN_MOTION":15.17106037,"ECCENTRICITY":0.00024627,"INCLINATION":43.0008,"RA_OF_ASC_NODE":286.745,"ARG_OF_PERICENTER":273.5065,"MEAN_ANOMALY":73.9831,"EPHEMERIS_TYPE":0,"CLASSIFICATION_TYPE":"U","NORAD_CAT_ID":57824,"ELEMENT_SET_NO":999,"REV_AT_EPOCH":578,"BSTAR":0.073222455,"MEAN_MOTION_DOT":0.01608429,"MEAN_MOTION_DDOT":0},{"OBJECT_NAME":"STARLINK-30377","OBJECT_ID":"2023-138T","EPOCH":"2026-02-28T06:00:02.000160","MEAN_MOTION":15.13358706,"ECCENTRICITY":0.00025119,"INCLINATION":43.0005,"RA_OF_ASC_NODE":286.7231,"ARG_OF_PERICENTER":274.1474,"MEAN_ANOMALY":83.4794,"EPHEMERIS_TYPE":0,"CLASSIFICATION_TYPE":"U","NORAD_CAT_ID":57825,"ELEMENT_SET_NO":999,"REV_AT_EPOCH":582,"BSTAR":0.0794688,"MEAN_MOTION_DOT":0.01567072,"MEAN_MOTION_DDOT":0},{"OBJECT_NAME":"STARLINK-30422","OBJECT_ID":"2023-138U","EPOCH":"2026-02-28T06:00:02.000160","MEAN_MOTION":15.13369053,"ECCENTRICITY":0.00024908,"INCLINATION":43.0012,"RA_OF_ASC_NODE":286.7628,"ARG_OF_PERICENTER":255.7568,"MEAN_ANOMALY":80.5251,"EPHEMERIS_TYPE":0,"CLASSIFICATION_TYPE":"U","NORAD_CAT_ID":57826,"ELEMENT_SET_NO":999,"REV_AT_EPOCH":582,"BSTAR":0.0027494347,"MEAN_MOTION_DOT":0.00050043,"MEAN_MOTION_DDOT":0},{"OBJECT_NAME":"STARLINK-30402","OBJECT_ID":"2023-138V","EPOCH":"2026-02-28T06:00:02.000160","MEAN_MOTION":15.13944003,"ECCENTRICITY":0.00021868,"INCLINATION":42.9996,"RA_OF_ASC_NODE":286.6513,"ARG_OF_PERICENTER":272.4119,"MEAN_ANOMALY":113.0694,"EPHEMERIS_TYPE":0,"CLASSIFICATION_TYPE":"U","NORAD_CAT_ID":57827,"ELEMENT_SET_NO":999,"REV_AT_EPOCH":578,"BSTAR":0.0010720326,"MEAN_MOTION_DOT":0.00019608,"MEAN_MOTION_DDOT":0},{"OBJECT_NAME":"STARLINK-30411","OBJECT_ID":"2023-138W","EPOCH":"2026-02-28T06:00:02.000160","MEAN_MOTION":15.13305449,"ECCENTRICITY":0.00023258,"INCLINATION":42.9999,"RA_OF_ASC_NODE":286.8372,"ARG_OF_PERICENTER":263.6902,"MEAN_ANOMALY":38.0785,"EPHEMERIS_TYPE":0,"CLASSIFICATION_TYPE":"U","NORAD_CAT_ID":57828,"ELEMENT_SET_NO":999,"REV_AT_EPOCH":578,"BSTAR":0.080972777,"MEAN_MOTION_DOT":0.01596945,"MEAN_MOTION_DDOT":0},{"OBJECT_NAME":"STARLINK-30418","OBJECT_ID":"2023-138X","EPOCH":"2026-02-28T06:00:02.000160","MEAN_MOTION":15.13430406,"ECCENTRICITY":0.00016553,"INCLINATION":43.0004,"RA_OF_ASC_NODE":286.668,"ARG_OF_PERICENTER":282.519,"MEAN_ANOMALY":96.9981,"EPHEMERIS_TYPE":0,"CLASSIFICATION_TYPE":"U","NORAD_CAT_ID":57829,"ELEMENT_SET_NO":999,"REV_AT_EPOCH":582,"BSTAR":0.049250786,"MEAN_MOTION_DOT":0.00960858,"MEAN_MOTION_DDOT":0},{"OBJECT_NAME":"STARLINK-30285","OBJECT_ID":"2023-141A","EPOCH":"2026-02-28T03:03:40.912704","MEAN_MOTION":15.3018905,"ECCENTRICITY":0.00013378,"INCLINATION":53.1611,"RA_OF_ASC_NODE":328.5574,"ARG_OF_PERICENTER":87.2612,"MEAN_ANOMALY":272.8542,"EPHEMERIS_TYPE":0,"CLASSIFICATION_TYPE":"U","NORAD_CAT_ID":57840,"ELEMENT_SET_NO":999,"REV_AT_EPOCH":13886,"BSTAR":1.2254193e-5,"MEAN_MOTION_DOT":4.0e-8,"MEAN_MOTION_DDOT":0},{"OBJECT_NAME":"STARLINK-30410","OBJECT_ID":"2023-141B","EPOCH":"2026-02-28T03:21:52.248384","MEAN_MOTION":15.30193689,"ECCENTRICITY":0.00014526,"INCLINATION":53.1613,"RA_OF_ASC_NODE":328.4505,"ARG_OF_PERICENTER":94.2788,"MEAN_ANOMALY":265.8379,"EPHEMERIS_TYPE":0,"CLASSIFICATION_TYPE":"U","NORAD_CAT_ID":57841,"ELEMENT_SET_NO":999,"REV_AT_EPOCH":13886,"BSTAR":6.4957403e-5,"MEAN_MOTION_DOT":1.565e-5,"MEAN_MOTION_DDOT":0},{"OBJECT_NAME":"STARLINK-30435","OBJECT_ID":"2023-141C","EPOCH":"2026-02-28T03:26:26.159712","MEAN_MOTION":15.3018975,"ECCENTRICITY":0.00011872,"INCLINATION":53.1621,"RA_OF_ASC_NODE":328.4965,"ARG_OF_PERICENTER":99.0328,"MEAN_ANOMALY":261.0808,"EPHEMERIS_TYPE":0,"CLASSIFICATION_TYPE":"U","NORAD_CAT_ID":57842,"ELEMENT_SET_NO":999,"REV_AT_EPOCH":13886,"BSTAR":5.0255886e-5,"MEAN_MOTION_DOT":1.129e-5,"MEAN_MOTION_DDOT":0},{"OBJECT_NAME":"STARLINK-30423","OBJECT_ID":"2023-141D","EPOCH":"2026-02-28T03:32:30.191424","MEAN_MOTION":15.3019077,"ECCENTRICITY":0.00014362,"INCLINATION":53.1614,"RA_OF_ASC_NODE":328.48,"ARG_OF_PERICENTER":89.4951,"MEAN_ANOMALY":270.6215,"EPHEMERIS_TYPE":0,"CLASSIFICATION_TYPE":"U","NORAD_CAT_ID":57843,"ELEMENT_SET_NO":999,"REV_AT_EPOCH":13886,"BSTAR":3.4086425e-5,"MEAN_MOTION_DOT":6.5e-6,"MEAN_MOTION_DDOT":0},{"OBJECT_NAME":"STARLINK-30292","OBJECT_ID":"2023-141E","EPOCH":"2026-02-28T03:43:02.178912","MEAN_MOTION":15.30166652,"ECCENTRICITY":0.00014315,"INCLINATION":53.1608,"RA_OF_ASC_NODE":328.031,"ARG_OF_PERICENTER":88.2206,"MEAN_ANOMALY":271.8959,"EPHEMERIS_TYPE":0,"CLASSIFICATION_TYPE":"U","NORAD_CAT_ID":57844,"ELEMENT_SET_NO":999,"REV_AT_EPOCH":13887,"BSTAR":0.00022780392,"MEAN_MOTION_DOT":6.387e-5,"MEAN_MOTION_DDOT":0},{"OBJECT_NAME":"STARLINK-30416","OBJECT_ID":"2023-141H","EPOCH":"2026-02-28T03:12:46.177920","MEAN_MOTION":15.30254476,"ECCENTRICITY":8.701e-5,"INCLINATION":53.1615,"RA_OF_ASC_NODE":328.5656,"ARG_OF_PERICENTER":80.8536,"MEAN_ANOMALY":279.2563,"EPHEMERIS_TYPE":0,"CLASSIFICATION_TYPE":"U","NORAD_CAT_ID":57847,"ELEMENT_SET_NO":999,"REV_AT_EPOCH":13886,"BSTAR":-0.00046045811,"MEAN_MOTION_DOT":-0.00013994,"MEAN_MOTION_DDOT":0},{"OBJECT_NAME":"STARLINK-30426","OBJECT_ID":"2023-141J","EPOCH":"2026-02-28T03:37:03.067680","MEAN_MOTION":15.30184713,"ECCENTRICITY":0.00010186,"INCLINATION":53.1609,"RA_OF_ASC_NODE":328.4638,"ARG_OF_PERICENTER":113.6074,"MEAN_ANOMALY":246.5034,"EPHEMERIS_TYPE":0,"CLASSIFICATION_TYPE":"U","NORAD_CAT_ID":57848,"ELEMENT_SET_NO":999,"REV_AT_EPOCH":13886,"BSTAR":7.153445e-5,"MEAN_MOTION_DOT":1.759e-5,"MEAN_MOTION_DDOT":0},{"OBJECT_NAME":"STARLINK-30430","OBJECT_ID":"2023-141K","EPOCH":"2026-02-28T03:08:14.328096","MEAN_MOTION":15.30186928,"ECCENTRICITY":0.00014176,"INCLINATION":53.1611,"RA_OF_ASC_NODE":328.5864,"ARG_OF_PERICENTER":93.7866,"MEAN_ANOMALY":266.3297,"EPHEMERIS_TYPE":0,"CLASSIFICATION_TYPE":"U","NORAD_CAT_ID":57849,"ELEMENT_SET_NO":999,"REV_AT_EPOCH":13886,"BSTAR":7.1082961e-5,"MEAN_MOTION_DOT":1.746e-5,"MEAN_MOTION_DDOT":0},{"OBJECT_NAME":"STARLINK-30425","OBJECT_ID":"2023-141L","EPOCH":"2026-02-28T03:41:33.845280","MEAN_MOTION":15.30307858,"ECCENTRICITY":3.58e-5,"INCLINATION":53.1613,"RA_OF_ASC_NODE":328.4897,"ARG_OF_PERICENTER":331.5729,"MEAN_ANOMALY":28.5252,"EPHEMERIS_TYPE":0,"CLASSIFICATION_TYPE":"U","NORAD_CAT_ID":57850,"ELEMENT_SET_NO":999,"REV_AT_EPOCH":13886,"BSTAR":-0.00083569185,"MEAN_MOTION_DOT":-0.00025109,"MEAN_MOTION_DDOT":0}]
